ONEWEB-0228             
1 48780U 21045P   23282.78199237  .00000144  00000+0  34968-3 0  9993
2 48780  87.8933  94.5829 0001775  85.0966 275.0367 13.15547823116421
